     3.02           N: GNSS NAV DATA    G: GPS              RINEX VERSION / TYPE
GR50 V4.50          IGG of WUELS        20220320 235954 UTC PGM / RUN BY / DATE
GPSA   1.6764D-08  7.4506D-09 -1.1921D-07  0.0000D+00       IONOSPHERIC CORR
GPSB   1.1059D+05  0.0000D+00 -2.6214D+05  0.0000D+00       IONOSPHERIC CORR
GPUT  9.3132257462D-10 3.552713679D-15 319488 2202          TIME SYSTEM CORR
    18    18  1929     7                                    LEAP SECONDS
                                                            END OF HEADER
G20 2022 03 21 12 00 00 5.162050947547D-04-1.136868377216D-13 0.000000000000D+00
     8.400000000000D+01 3.471875000000D+01 5.028066582012D-09-3.087466238276D+00
     1.940876245499D-06 5.037104943767D-03 7.078051567078D-06 5.153772243500D+03
     1.296000000000D+05-8.009374141693D-08-1.657142968599D+00-7.078051567078D-08
     9.418663674176D-01 2.317187500000D+02-3.126714351014D+00-8.298202796312D-09
     5.960962583733D-10 1.000000000000D+00 2.202000000000D+03 0.000000000000D+00
     2.000000000000D+00 0.000000000000D+00-8.381903171539D-09 8.400000000000D+01
     1.293000000000D+05                   
G12 2022 03 21 14 00 00-1.882463693619D-04-5.798028723802D-12 0.000000000000D+00
     8.500000000000D+01 7.800000000000D+01 4.588405411217D-09 1.959304107235D+00
     3.714114427567D-06 8.740643854253D-03 4.224479198456D-06 5.153579938889D+03
     1.368000000000D+05-5.960464477539D-08 1.711346387532D+00-1.825392246246D-07
     9.696022160299D-01 2.990312500000D+02 1.260059379514D+00-8.236057350562D-09
     1.303625729816D-10 1.000000000000D+00 2.202000000000D+03 0.000000000000D+00
     2.000000000000D+00 0.000000000000D+00-1.257285475731D-08 8.500000000000D+01
     1.296000000000D+05                   
G11 2022 03 21 14 00 00-5.847495049238D-05 7.958078640513D-12 0.000000000000D+00
     2.180000000000D+02-4.006250000000D+01 4.067312277025D-09-7.931633340251D-01
    -1.979991793633D-06 2.800647635013D-04 1.207552850246D-05 5.153789728165D+03
     1.368000000000D+05-3.352761268616D-08-2.493456477236D+00-9.872019290924D-08
     9.624851181114D-01 1.508437500000D+02 2.745594889116D+00-7.772109453841D-09
     2.010798043524D-10 1.000000000000D+00 2.202000000000D+03 0.000000000000D+00
     1.024000000000D+03 6.300000000000D+01-8.847564458847D-09 4.740000000000D+02
     1.296000000000D+05                   
G20 2022 03 21 14 00 00 5.162041634321D-04-1.136868377216D-13 0.000000000000D+00
     8.600000000000D+01 2.884375000000D+01 5.050567519267D-09-2.037428343366D+00
     1.518055796623D-06 5.037989933044D-03 7.363036274910D-06 5.153770402908D+03
     1.368000000000D+05-3.725290298462D-09-1.657203082829D+00-1.285225152969D-07
     9.418706025655D-01 2.274375000000D+02-3.126627020657D+00-8.345704774960D-09
     6.396695019452D-10 1.000000000000D+00 2.202000000000D+03 0.000000000000D+00
     2.000000000000D+00 0.000000000000D+00-8.381903171539D-09 8.600000000000D+01
     1.296000000000D+05                   
G02 2022 03 21 14 00 00-6.524939090014D-04-3.410605131648D-13 0.000000000000D+00
     2.900000000000D+01-6.062500000000D+01 3.857660687052D-09-2.877954459201D+00
    -2.970919013023D-06 2.057375246659D-02 1.196376979351D-05 5.153635093689D+03
     1.368000000000D+05 2.142041921616D-07-2.626337454731D+00 5.587935447693D-08
     9.656756707592D-01 1.482500000000D+02-1.430893882337D+00-7.380307419428D-09
     1.110760553350D-10 1.000000000000D+00 2.202000000000D+03 0.000000000000D+00
     2.000000000000D+00 0.000000000000D+00-1.769512891769D-08 2.900000000000D+01
     1.296000000000D+05                   
G29 2022 03 21 14 00 00-4.939422942698D-04-4.433786671143D-12 0.000000000000D+00
     6.100000000000D+01-8.187500000000D+01 4.085170163735D-09-6.572917994132D-01
    -4.325062036514D-06 1.949845231138D-03 5.474314093590D-06 5.153735683441D+03
     1.368000000000D+05-4.842877388000D-08 2.762308516049D+00-2.980232238770D-08
     9.816599803642D-01 2.847187500000D+02 2.230204961354D+00-8.055692694793D-09
    -4.053740283126D-10 1.000000000000D+00 2.202000000000D+03 0.000000000000D+00
     2.000000000000D+00 0.000000000000D+00-1.024454832077D-08 6.100000000000D+01
     1.296000000000D+05                   
G22 2022 03 21 14 00 00 2.309354022145D-04 5.911715561524D-12 0.000000000000D+00
     3.000000000000D+00-4.568750000000D+01 4.858773816004D-09-9.658833085739D-01
    -2.121552824974D-06 1.310566114262D-02 7.888302206993D-06 5.153665122986D+03
     1.368000000000D+05-1.471489667892D-07-3.716377353805D-01 2.793967723846D-07
     9.616116331329D-01 2.305937500000D+02-1.865279420352D+00-8.304631635527D-09
    -4.053740283126D-10 1.000000000000D+00 2.202000000000D+03 0.000000000000D+00
     2.000000000000D+00 0.000000000000D+00-9.778887033463D-09 3.000000000000D+00
     1.296000000000D+05                   
G06 2022 03 21 14 00 00 2.388888970017D-04 1.296029950026D-11 0.000000000000D+00
     8.400000000000D+01-5.653125000000D+01 3.532647148933D-09-2.733897903787D+00
    -2.864748239517D-06 2.684389357455D-03 1.242570579052D-05 5.153698329926D+03
     1.368000000000D+05 8.009374141693D-08-2.544671656314D+00 3.166496753693D-08
     9.867524786586D-01 1.549375000000D+02-9.096321349496D-01-7.547457239032D-09
     1.425059359442D-10 1.000000000000D+00 2.202000000000D+03 0.000000000000D+00
     2.000000000000D+00 0.000000000000D+00 3.725290298462D-09 8.400000000000D+01
     1.296000000000D+05                   
G32 2022 03 21 14 00 00-8.915318176150D-05-7.503331289627D-12 0.000000000000D+00
     6.100000000000D+01-4.681250000000D+01 4.964135347591D-09-1.695846690022D-01
    -2.397224307060D-06 5.780551931821D-03 7.044523954391D-06 5.153574909210D+03
     1.368000000000D+05-5.774199962616D-08-4.618368783198D-01 6.519258022308D-08
     9.582612596107D-01 2.446562500000D+02-2.317205012593D+00-8.343561828555D-09
    -3.760870941085D-10 1.000000000000D+00 2.202000000000D+03 0.000000000000D+00
     2.000000000000D+00 0.000000000000D+00 4.656612873077D-10 6.100000000000D+01
     1.296000000000D+05                   
G25 2022 03 21 14 00 00 3.013289533556D-04 5.115907697473D-12 0.000000000000D+00
     6.600000000000D+01 8.715625000000D+01 4.885917803802D-09 1.680639285006D+00
     4.332512617111D-06 1.057169993874D-02 4.610046744347D-06 5.153697479248D+03
     1.368000000000D+05-2.998858690262D-07 1.634154014125D+00-7.823109626770D-08
     9.570695358220D-01 2.896562500000D+02 9.912391269855D-01-8.467138404587D-09
     1.778645516296D-10 1.000000000000D+00 2.202000000000D+03 0.000000000000D+00
     2.000000000000D+00 0.000000000000D+00 5.587935447693D-09 6.600000000000D+01
     1.296000000000D+05                   
G31 2022 03 21 14 00 00-1.699239946902D-04-1.705302565824D-12 0.000000000000D+00
     8.500000000000D+01 5.300000000000D+01 4.516259548909D-09 2.139770682129D+00
     2.812594175339D-06 1.044186775107D-02 1.238659024239D-05 5.153714002609D+03
     1.368000000000D+05-2.495944499969D-07 6.164426296299D-01 7.078051567078D-08
     9.554611261510D-01 1.414375000000D+02 3.816729847490D-01-7.901043395886D-09
    -8.357490980188D-11 1.000000000000D+00 2.202000000000D+03 0.000000000000D+00
     2.800000000000D+00 0.000000000000D+00-1.350417733192D-08 8.500000000000D+01
     1.296000000000D+05                   
G24 2022 03 21 14 00 00 2.658930607140D-04-3.865352482535D-12 0.000000000000D+00
     8.800000000000D+01 3.318750000000D+01 4.926276627767D-09-2.720028749898D+00
     1.562759280205D-06 1.238154806197D-02 1.238659024239D-05 5.153699989319D+03
     1.368000000000D+05 7.636845111847D-08 5.149256853388D-01-2.048909664154D-07
     9.347858790240D-01 1.240625000000D+02 8.107828144615D-01-8.007119242942D-09
    -8.678932940965D-11 1.000000000000D+00 2.202000000000D+03 0.000000000000D+00
     2.000000000000D+00 0.000000000000D+00 2.328306436539D-09 8.800000000000D+01
     1.296000000000D+05                   
G26 2022 03 21 14 00 00 1.925425603986D-04 2.955857780762D-12 0.000000000000D+00
     6.400000000000D+01 9.662500000000D+01 5.370223691372D-09 1.024386373941D+00
     5.319714546204D-06 6.932078045793D-03 3.945082426071D-06 5.153719257355D+03
     1.368000000000D+05 7.450580596924D-09 1.586483162249D+00 1.210719347000D-07
     9.379287098212D-01 2.888750000000D+02 3.831648451995D-01-8.730363654689D-09
     8.607501394126D-11 1.000000000000D+00 2.202000000000D+03 0.000000000000D+00
     2.000000000000D+00 0.000000000000D+00 6.984919309616D-09 6.400000000000D+01
     1.305900000000D+05                   
G05 2022 03 21 14 00 00-7.546367123723D-05-1.364242052659D-12 0.000000000000D+00
     6.400000000000D+01 2.634375000000D+01 4.742697552390D-09-3.549839183908D-01
     1.542270183563D-06 5.866793566383D-03 6.865710020065D-06 5.153681619644D+03
     1.368000000000D+05-1.862645149231D-09-1.542500367812D+00 5.029141902924D-08
     9.595976221098D-01 2.473750000000D+02 1.007787385658D+00-8.294274061236D-09
     5.593090117511D-10 1.000000000000D+00 2.202000000000D+03 0.000000000000D+00
     2.000000000000D+00 0.000000000000D+00-1.117587089539D-08 6.400000000000D+01
     1.317300000000D+05                   
G16 2022 03 21 14 00 00-4.831650294363D-04-4.320099833421D-12 0.000000000000D+00
     7.100000000000D+01 7.225000000000D+01 4.758055334960D-09 1.024957227983D-01
     3.991648554802D-06 1.280237874016D-02 3.211200237274D-06 5.153618246078D+03
     1.368000000000D+05 8.009374141693D-08 1.729954673316D+00 2.067536115646D-07
     9.695276086708D-01 3.192500000000D+02 7.185321776122D-01-8.588572034213D-09
     1.032185851827D-10 1.000000000000D+00 2.202000000000D+03 0.000000000000D+00
     2.000000000000D+00 0.000000000000D+00-1.024454832077D-08 7.100000000000D+01
     1.353600000000D+05                   
